[{"OBJECT_NAME":"KINEIS-5A","OBJECT_ID":"2024-219D","EPOCH":"2026-03-08T15:03:13.288032","MEAN_MOTION":14.72183086,"ECCENTRICITY":0.00019623,"INCLINATION":97.9753,"RA_OF_ASC_NODE":229.3802,"ARG_OF_PERICENTER":203.7354,"MEAN_ANOMALY":156.3764,"EPHEMERIS_TYPE":0,"CLASSIFICATION_TYPE":"U","NORAD_CAT_ID":62084,"ELEMENT_SET_NO":999,"REV_AT_EPOCH":6897,"BSTAR":0.00011705612,"MEAN_MOTION_DOT":6.89e-6,"MEAN_MOTION_DDOT":0},{"OBJECT_NAME":"COSMOS 2251 DEB","OBJECT_ID":"1993-036BRS","EPOCH":"2026-03-02T04:39:03.704832","MEAN_MOTION":14.64353057,"ECCENTRICITY":0.00599606,"INCLINATION":74.0431,"RA_OF_ASC_NODE":142.7485,"ARG_OF_PERICENTER":231.1694,"MEAN_ANOMALY":128.4114,"EPHEMERIS_TYPE":0,"CLASSIFICATION_TYPE":"U","NORAD_CAT_ID":38060,"ELEMENT_SET_NO":999,"REV_AT_EPOCH":73127,"BSTAR":0.00050932588,"MEAN_MOTION_DOT":2.73e-5,"MEAN_MOTION_DDOT":0}]
